[{"OBJECT_NAME":"RISAT-2B","OBJECT_ID":"2019-028A","EPOCH":"2026-03-09T20:41:11.920992","MEAN_MOTION":15.01650685,"ECCENTRICITY":0.00079997,"INCLINATION":36.9961,"RA_OF_ASC_NODE":222.9871,"ARG_OF_PERICENTER":294.4328,"MEAN_ANOMALY":65.558,"EPHEMERIS_TYPE":0,"CLASSIFICATION_TYPE":"U","NORAD_CAT_ID":44233,"ELEMENT_SET_NO":999,"REV_AT_EPOCH":37289,"BSTAR":0.00037049954,"MEAN_MOTION_DOT":4.829e-5,"MEAN_MOTION_DDOT":0},{"OBJECT_NAME":"STARLINK-34961","OBJECT_ID":"2025-179T","EPOCH":"2026-03-09T17:18:06.743232","MEAN_MOTION":15.05648156,"ECCENTRICITY":9.541e-5,"INCLINATION":97.6032,"RA_OF_ASC_NODE":113.0048,"ARG_OF_PERICENTER":116.9274,"MEAN_ANOMALY":243.205,"EPHEMERIS_TYPE":0,"CLASSIFICATION_TYPE":"U","NORAD_CAT_ID":65252,"ELEMENT_SET_NO":999,"REV_AT_EPOCH":3183,"BSTAR":0.00011293018,"MEAN_MOTION_DOT":1.569e-5,"MEAN_MOTION_DDOT":0}]
